CELESTIS-02             
1 25160U 98007D   08167.44092575 -.00000098  00000-0  14138-4 0  7791
2 25160 107.9894  65.8420 0065202 234.6253 124.8769 14.20810740536355
CELESTIS-03             
1 26034U 99070C   08167.53174416  .00000156  00000-0  28541-4 0  2644
2 26034  98.3600 157.9468 0020222  84.6726 275.6817 14.79479308456108
AMC-14                  
1 32708U 08011A   08167.18912667 -.00000037  00000-0  10000-3 0   998
2 32708  19.3037 143.1873 2819813  19.1372  52.6207  1.45443859  1856
